API VERSION: 1.2
API SOURCE: NASA/JPL Horizons API



*******************************************************************************
Ephemeris / API_USER Tue Apr  7 13:17:32 2026 Pasadena, USA      / Horizons    
*******************************************************************************
Target body name: Jupiter (599)                   {source: jup365_merged}
Center body name: Earth (399)                     {source: DE441}
Center-site name: (user defined site below)
*******************************************************************************
Start time      : A.D. 2026-Jan-01 00:00:00.0000 UT      
Stop  time      : A.D. 2026-Dec-31 00:00:00.0000 UT      
Step-size       : 1440 minutes
*******************************************************************************
Target pole/equ : IAU_JUPITER                     {West-longitude positive}
Target radii    : 71492.0, 71492.0, 66854.0 km    {Equator_a, b, pole_c}       
Center geodetic : 286.0, 40.7, 0.0                {E-lon(deg),Lat(deg),Alt(km)}
Center cylindric: 286.0, 4842.3819, 4137.22272    {E-lon(deg),Dxy(km),Dz(km)}
Center pole/equ : ITRF93                          {East-longitude positive}
Center radii    : 6378.137, 6378.137, 6356.752 km {Equator_a, b, pole_c}       
Target primary  : Sun
Vis. interferer : MOON (R_eq= 1737.400) km        {source: DE441}
Rel. light bend : Sun                             {source: jup365_merged}
Rel. lght bnd GM: 1.3271E+11 km^3/s^2                                          
Atmos refraction: NO (AIRLESS)
RA format       : HMS
Time format     : CAL 
Calendar mode   : Mixed Julian/Gregorian
EOP file        : eop.260406.p260703                                           
EOP coverage    : DATA-BASED 1962-JAN-20 TO 2026-APR-06. PREDICTS-> 2026-JUL-02
Units conversion: 1 au= 149597870.700 km, c= 299792.458 km/s, 1 day= 86400.0 s 
Table cut-offs 1: Elevation (-90.0deg=NO ),Airmass (>38.000=NO), Daylight (NO )
Table cut-offs 2: Solar elongation (  0.0,180.0=NO ),Local Hour Angle( 0.0=NO )
Table cut-offs 3: RA/DEC angular rate (     0.0=NO )                           
*******************************************************************************
 Date__(UT)__HR:MN     R.A._____(ICRF)_____DEC
**********************************************
$$SOE
 2026-Jan-01 00:00  m  07 30 55.15 +22 02 03.3
 2026-Jan-02 00:00  m  07 30 21.70 +22 03 24.3
 2026-Jan-03 00:00  m  07 29 48.03 +22 04 45.3
 2026-Jan-04 00:00  m  07 29 14.16 +22 06 06.2
 2026-Jan-05 00:00  m  07 28 40.12 +22 07 26.9
 2026-Jan-06 00:00     07 28 05.92 +22 08 47.4
 2026-Jan-07 00:00     07 27 31.61 +22 10 07.6
 2026-Jan-08 00:00     07 26 57.20 +22 11 27.5
 2026-Jan-09 00:00     07 26 22.72 +22 12 47.0
 2026-Jan-10 00:00     07 25 48.18 +22 14 06.1
 2026-Jan-11 00:00     07 25 13.63 +22 15 24.7
 2026-Jan-12 00:00     07 24 39.08 +22 16 42.7
 2026-Jan-13 00:00     07 24 04.56 +22 18 00.1
 2026-Jan-14 00:00     07 23 30.11 +22 19 16.8
 2026-Jan-15 00:00     07 22 55.74 +22 20 32.8
 2026-Jan-16 00:00     07 22 21.48 +22 21 48.1
 2026-Jan-17 00:00     07 21 47.37 +22 23 02.5
 2026-Jan-18 00:00     07 21 13.41 +22 24 16.1
 2026-Jan-19 00:00     07 20 39.66 +22 25 28.8
 2026-Jan-20 00:00     07 20 06.13 +22 26 40.5
 2026-Jan-21 00:00  m  07 19 32.84 +22 27 51.2
 2026-Jan-22 00:00  m  07 18 59.84 +22 29 00.8
 2026-Jan-23 00:00  m  07 18 27.13 +22 30 09.4
 2026-Jan-24 00:00  m  07 17 54.74 +22 31 16.8
 2026-Jan-25 00:00  m  07 17 22.71 +22 32 23.1
 2026-Jan-26 00:00  m  07 16 51.05 +22 33 28.2
 2026-Jan-27 00:00  m  07 16 19.78 +22 34 32.1
 2026-Jan-28 00:00  m  07 15 48.94 +22 35 34.8
 2026-Jan-29 00:00  m  07 15 18.54 +22 36 36.1
 2026-Jan-30 00:00  m  07 14 48.60 +22 37 36.2
 2026-Jan-31 00:00  m  07 14 19.13 +22 38 35.0
 2026-Feb-01 00:00  m  07 13 50.17 +22 39 32.5
 2026-Feb-02 00:00  m  07 13 21.72 +22 40 28.6
 2026-Feb-03 00:00  m  07 12 53.81 +22 41 23.3
 2026-Feb-04 00:00     07 12 26.46 +22 42 16.7
 2026-Feb-05 00:00     07 11 59.68 +22 43 08.8
 2026-Feb-06 00:00     07 11 33.50 +22 43 59.4
 2026-Feb-07 00:00     07 11 07.92 +22 44 48.7
 2026-Feb-08 00:00     07 10 42.96 +22 45 36.5
 2026-Feb-09 00:00     07 10 18.64 +22 46 23.0
 2026-Feb-10 00:00     07 09 54.98 +22 47 08.0
 2026-Feb-11 00:00     07 09 32.00 +22 47 51.6
 2026-Feb-12 00:00     07 09 09.70 +22 48 33.8
 2026-Feb-13 00:00     07 08 48.11 +22 49 14.5
 2026-Feb-14 00:00 A   07 08 27.23 +22 49 53.8
 2026-Feb-15 00:00 A   07 08 07.08 +22 50 31.7
 2026-Feb-16 00:00 A   07 07 47.68 +22 51 08.2
 2026-Feb-17 00:00 A   07 07 29.02 +22 51 43.1
 2026-Feb-18 00:00 A   07 07 11.14 +22 52 16.7
 2026-Feb-19 00:00 Am  07 06 54.03 +22 52 48.8
 2026-Feb-20 00:00 Am  07 06 37.70 +22 53 19.4
 2026-Feb-21 00:00 Am  07 06 22.18 +22 53 48.6
 2026-Feb-22 00:00 Am  07 06 07.45 +22 54 16.4
 2026-Feb-23 00:00 Am  07 05 53.54 +22 54 42.7
 2026-Feb-24 00:00 Am  07 05 40.44 +22 55 07.5
 2026-Feb-25 00:00 Am  07 05 28.17 +22 55 31.0
 2026-Feb-26 00:00 Am  07 05 16.72 +22 55 53.0
 2026-Feb-27 00:00 Am  07 05 06.11 +22 56 13.6
 2026-Feb-28 00:00 Am  07 04 56.33 +22 56 32.7
 2026-Mar-01 00:00 Am  07 04 47.38 +22 56 50.5
 2026-Mar-02 00:00 Am  07 04 39.28 +22 57 06.9
 2026-Mar-03 00:00 Am  07 04 32.01 +22 57 21.9
 2026-Mar-04 00:00 Am  07 04 25.58 +22 57 35.5
 2026-Mar-05 00:00 A   07 04 20.00 +22 57 47.7
 2026-Mar-06 00:00 A   07 04 15.26 +22 57 58.6
 2026-Mar-07 00:00 A   07 04 11.37 +22 58 08.1
 2026-Mar-08 00:00 A   07 04 08.32 +22 58 16.3
 2026-Mar-09 00:00 A   07 04 06.11 +22 58 23.1
 2026-Mar-10 00:00 A   07 04 04.75 +22 58 28.6
 2026-Mar-11 00:00 A   07 04 04.24 +22 58 32.7
 2026-Mar-12 00:00 A   07 04 04.57 +22 58 35.5
 2026-Mar-13 00:00 A   07 04 05.75 +22 58 37.0
 2026-Mar-14 00:00 A   07 04 07.78 +22 58 37.1
 2026-Mar-15 00:00 N   07 04 10.64 +22 58 35.9
 2026-Mar-16 00:00 N   07 04 14.34 +22 58 33.4
 2026-Mar-17 00:00 N   07 04 18.88 +22 58 29.5
 2026-Mar-18 00:00 N   07 04 24.26 +22 58 24.3
 2026-Mar-19 00:00 N   07 04 30.47 +22 58 17.8
 2026-Mar-20 00:00 Nm  07 04 37.51 +22 58 09.9
 2026-Mar-21 00:00 Nm  07 04 45.37 +22 58 00.7
 2026-Mar-22 00:00 Nm  07 04 54.05 +22 57 50.2
 2026-Mar-23 00:00 Nm  07 05 03.55 +22 57 38.3
 2026-Mar-24 00:00 Nm  07 05 13.85 +22 57 25.1
 2026-Mar-25 00:00 Nm  07 05 24.96 +22 57 10.6
 2026-Mar-26 00:00 Nm  07 05 36.87 +22 56 54.7
 2026-Mar-27 00:00 Nm  07 05 49.56 +22 56 37.5
 2026-Mar-28 00:00 Nm  07 06 03.03 +22 56 19.0
 2026-Mar-29 00:00 Nm  07 06 17.28 +22 55 59.1
 2026-Mar-30 00:00 Nm  07 06 32.30 +22 55 38.0
 2026-Mar-31 00:00 Nm  07 06 48.07 +22 55 15.5
 2026-Apr-01 00:00 Nm  07 07 04.60 +22 54 51.6
 2026-Apr-02 00:00 Nm  07 07 21.87 +22 54 26.5
 2026-Apr-03 00:00 N   07 07 39.88 +22 54 00.0
 2026-Apr-04 00:00 N   07 07 58.63 +22 53 32.2
 2026-Apr-05 00:00 N   07 08 18.09 +22 53 03.1
 2026-Apr-06 00:00 N   07 08 38.28 +22 52 32.7
 2026-Apr-07 00:00 N   07 08 59.17 +22 52 00.9
 2026-Apr-08 00:00 N   07 09 20.77 +22 51 27.7
 2026-Apr-09 00:00 N   07 09 43.06 +22 50 53.2
 2026-Apr-10 00:00 N   07 10 06.05 +22 50 17.4
 2026-Apr-11 00:00 N   07 10 29.71 +22 49 40.2
 2026-Apr-12 00:00 N   07 10 54.06 +22 49 01.6
 2026-Apr-13 00:00 C   07 11 19.07 +22 48 21.6
 2026-Apr-14 00:00 C   07 11 44.74 +22 47 40.3
 2026-Apr-15 00:00 C   07 12 11.07 +22 46 57.5
 2026-Apr-16 00:00 C   07 12 38.04 +22 46 13.4
 2026-Apr-17 00:00 C   07 13 05.66 +22 45 27.8
 2026-Apr-18 00:00 Cm  07 13 33.91 +22 44 40.9
 2026-Apr-19 00:00 Cm  07 14 02.78 +22 43 52.5
 2026-Apr-20 00:00 Cm  07 14 32.26 +22 43 02.7
 2026-Apr-21 00:00 Cm  07 15 02.35 +22 42 11.4
 2026-Apr-22 00:00 Cm  07 15 33.04 +22 41 18.7
 2026-Apr-23 00:00 Cm  07 16 04.31 +22 40 24.6
 2026-Apr-24 00:00 Cm  07 16 36.16 +22 39 29.1
 2026-Apr-25 00:00 Cm  07 17 08.58 +22 38 32.0
 2026-Apr-26 00:00 Cm  07 17 41.56 +22 37 33.6
 2026-Apr-27 00:00 Cm  07 18 15.09 +22 36 33.7
 2026-Apr-28 00:00 Cm  07 18 49.15 +22 35 32.3
 2026-Apr-29 00:00 Cm  07 19 23.75 +22 34 29.5
 2026-Apr-30 00:00 Cm  07 19 58.88 +22 33 25.2
 2026-May-01 00:00 Cm  07 20 34.52 +22 32 19.5
 2026-May-02 00:00 C   07 21 10.67 +22 31 12.3
 2026-May-03 00:00 C   07 21 47.32 +22 30 03.6
 2026-May-04 00:00 C   07 22 24.46 +22 28 53.4
 2026-May-05 00:00 C   07 23 02.09 +22 27 41.8
 2026-May-06 00:00 C   07 23 40.20 +22 26 28.6
 2026-May-07 00:00 C   07 24 18.78 +22 25 14.0
 2026-May-08 00:00 C   07 24 57.83 +22 23 57.8
 2026-May-09 00:00 C   07 25 37.33 +22 22 40.1
 2026-May-10 00:00 *   07 26 17.28 +22 21 20.9
 2026-May-11 00:00 *   07 26 57.67 +22 20 00.2
 2026-May-12 00:00 *   07 27 38.50 +22 18 37.9
 2026-May-13 00:00 *   07 28 19.76 +22 17 14.1
 2026-May-14 00:00 *   07 29 01.43 +22 15 48.8
 2026-May-15 00:00 *   07 29 43.53 +22 14 21.9
 2026-May-16 00:00 *   07 30 26.03 +22 12 53.4
 2026-May-17 00:00 *m  07 31 08.93 +22 11 23.3
 2026-May-18 00:00 *m  07 31 52.22 +22 09 51.7
 2026-May-19 00:00 *m  07 32 35.89 +22 08 18.6
 2026-May-20 00:00 *m  07 33 19.94 +22 06 43.9
 2026-May-21 00:00 *m  07 34 04.35 +22 05 07.6
 2026-May-22 00:00 *m  07 34 49.12 +22 03 29.7
 2026-May-23 00:00 *m  07 35 34.24 +22 01 50.3
 2026-May-24 00:00 *m  07 36 19.70 +22 00 09.3
 2026-May-25 00:00 *m  07 37 05.50 +21 58 26.8
 2026-May-26 00:00 *m  07 37 51.62 +21 56 42.7
 2026-May-27 00:00 *m  07 38 38.05 +21 54 57.1
 2026-May-28 00:00 *m  07 39 24.80 +21 53 09.9
 2026-May-29 00:00 *m  07 40 11.86 +21 51 21.2
 2026-May-30 00:00 *m  07 40 59.21 +21 49 30.9
 2026-May-31 00:00 *   07 41 46.86 +21 47 39.0
 2026-Jun-01 00:00 *   07 42 34.79 +21 45 45.6
 2026-Jun-02 00:00 *   07 43 23.00 +21 43 50.7
 2026-Jun-03 00:00 *   07 44 11.48 +21 41 54.1
 2026-Jun-04 00:00 *   07 45 00.23 +21 39 56.1
 2026-Jun-05 00:00 *   07 45 49.24 +21 37 56.5
 2026-Jun-06 00:00 *   07 46 38.51 +21 35 55.3
 2026-Jun-07 00:00 *   07 47 28.03 +21 33 52.5
 2026-Jun-08 00:00 *   07 48 17.80 +21 31 48.2
 2026-Jun-09 00:00 *   07 49 07.80 +21 29 42.4
 2026-Jun-10 00:00 *   07 49 58.04 +21 27 35.0
 2026-Jun-11 00:00 *   07 50 48.50 +21 25 26.0
 2026-Jun-12 00:00 *   07 51 39.18 +21 23 15.5
 2026-Jun-13 00:00 *   07 52 30.08 +21 21 03.5
